43929,IRIDIUM 171,2019,100.4,860.0,+,86.4,Active,1,LEO,USA,USA,Commercial/Government,Communications,Falcon,1 43929U 19002H   24203.22035570  .00000497  00000+0  17047-3 0  9995,2 43929  86.3972 284.6442 0002108  89.1678 270.9760 14.34220197289209,14.34220197,0.0002108,LEO
43930,IRIDIUM 170,2019,97.81,860.0,+,86.61,Active,1,LEO,USA,USA,Commercial/Government,Communications,Falcon,1 43930U 19002J   24202.76804735  .00002254  00000+0  35355-3 0  9997,2 43930  86.6094 284.6471 0002328  93.0628 267.0856 14.72247285296798,14.72247285,0.0002328,LEO
43931,IRIDIUM 167,2019,100.4,860.0,+,86.4,Active,1,LEO,USA,USA,Commercial/Government,Communications,Falcon,1 43931U 19002K   24202.93494027  .00000401  00000+0  13627-3 0  9996,2 43931  86.3965 284.5502 0002255  91.7841 268.3613 14.34216359289162,14.34216359,0.0002255,LEO
56726,IRIDIUM 181,2023,99.75,-1.0,+,86.87,Active,0,LEO,USA,USA,Unknown,Unknown,Unknown,1 56726U 23068S   24202.93357579  .00000659  00000+0  18888-3 0  9998,2 56726  86.8662 339.9233 0002341  89.2106 270.9364 14.43578664 62009,14.43578664,0.0002341,LEO
56727,IRIDIUM 177,2023,97.28,-1.0,+,86.2,Active,0,LEO,USA,USA,Unknown,Unknown,Unknown,1 56727U 23068T   24202.82321390  .00000174  00000+0  19411-4 0  9995,2 56727  86.1979 299.3911 0002398  93.5672 266.5823 14.80222660 63357,14.8022266,0.0002398,LEO
56728,IRIDIUM 174,2023,97.28,-1.0,+,86.2,Active,0,LEO,USA,USA,Unknown,Unknown,Unknown,1 56728U 23068U   24202.81778593  .00001299  00000+0  16753-3 0  9990,2 56728  86.1989 299.5004 0002352  89.7937 270.3553 14.80220684 63352,14.80220684,0.0002352,LEO
56729,IRIDIUM 178,2023,97.28,-1.0,+,86.58,Active,0,LEO,USA,USA,Unknown,Unknown,Unknown,1 56729U 23068V   24203.42078540  .00002437  00000+0  31731-3 0  9992,2 56729  86.5803 318.3015 0002611  96.4065 263.7454 14.80228675 63443,14.80228675,0.0002611,LEO
56730,IRIDIUM 179,2023,97.28,-1.0,+,86.68,Active,0,LEO,USA,USA,Unknown,Unknown,Unknown,1 56730U 23068W   24203.34769195  .00003234  00000+0  42210-3 0  9998,2 56730  86.6811 322.8967 0002529  99.5634 260.5874 14.80237111 63430,14.80237111,0.0002529,LEO
